[
  {
    "COMMENT": "GENERATED VIA SPACETRACK.ORG API",
    "ORIGINATOR": "18 SPCS",
    "NORAD_CAT_ID": "41240",
    "OBJECT_NAME": "JASON 3",
    "OBJECT_TYPE": "PAYLOAD",
    "CLASSIFICATION_TYPE": "U",
    "INTLDES": "16002A",
    "EPOCH": "2023-06-26 09:09:52",
    "EPOCH_MICROSECONDS": "646112",
    "MEAN_MOTION": "12.80930054",
    "ECCENTRICITY": "0.0008111",
    "INCLINATION": "66.0402",
    "RA_OF_ASC_NODE": "232.4193",
    "ARG_OF_PERICENTER": "269.8876",
    "MEAN_ANOMALY": "90.121",
    "EPHEMERIS_TYPE": "0",
    "ELEMENT_SET_NO": "999",
    "REV_AT_EPOCH": "34794",
    "BSTAR": "0.000040858",
    "MEAN_MOTION_DOT": "-0.00000052",
    "MEAN_MOTION_DDOT": "0",
    "FILE": "3943229",
    "TLE_LINE0": "0 JASON 3",
    "TLE_LINE1": "1 41240U 16002A   23177.38185933 -.00000052  00000-0  40858-4 0  9997",
    "TLE_LINE2": "2 41240  66.0402 232.4193 0008111 269.8876  90.1210 12.80930054347944",
    "OBJECT_ID": "2016-002A",
    "OBJECT_NUMBER": "41240",
    "SEMIMAJOR_AXIS": "7715.870",
    "PERIOD": "112.418",
    "APOGEE": "1343.993",
    "PERIGEE": "1331.477",
    "DECAYED": "0"
  },
  {
    "COMMENT": "GENERATED VIA SPACETRACK.ORG API",
    "ORIGINATOR": "18 SPCS",
    "NORAD_CAT_ID": "41240",
    "OBJECT_NAME": "JASON 3",
    "OBJECT_TYPE": "PAYLOAD",
    "CLASSIFICATION_TYPE": "U",
    "INTLDES": "16002A",
    "EPOCH": "2023-06-27 09:31:27",
    "EPOCH_MICROSECONDS": "527232",
    "MEAN_MOTION": "12.80930087",
    "ECCENTRICITY": "0.0008129",
    "INCLINATION": "66.04",
    "RA_OF_ASC_NODE": "230.3112",
    "ARG_OF_PERICENTER": "269.8564",
    "MEAN_ANOMALY": "90.1519",
    "EPHEMERIS_TYPE": "0",
    "ELEMENT_SET_NO": "999",
    "REV_AT_EPOCH": "34807",
    "BSTAR": "0.000056225",
    "MEAN_MOTION_DOT": "-0.00000048",
    "MEAN_MOTION_DDOT": "0",
    "FILE": "3944066",
    "TLE_LINE0": "0 JASON 3",
    "TLE_LINE1": "1 41240U 16002A   23178.39684638 -.00000048  00000-0  56225-4 0  9995",
    "TLE_LINE2": "2 41240  66.0400 230.3112 0008129 269.8564  90.1519 12.80930087348076",
    "OBJECT_ID": "2016-002A",
    "OBJECT_NUMBER": "41240",
    "SEMIMAJOR_AXIS": "7715.870",
    "PERIOD": "112.418",
    "APOGEE": "1344.007",
    "PERIGEE": "1331.463",
    "DECAYED": "0"
  },
  {
    "COMMENT": "GENERATED VIA SPACETRACK.ORG API",
    "ORIGINATOR": "18 SPCS",
    "NORAD_CAT_ID": "41240",
    "OBJECT_NAME": "JASON 3",
    "OBJECT_TYPE": "PAYLOAD",
    "CLASSIFICATION_TYPE": "U",
    "INTLDES": "16002A",
    "EPOCH": "2023-06-28 09:53:02",
    "EPOCH_MICROSECONDS": "405760",
    "MEAN_MOTION": "12.80930146",
    "ECCENTRICITY": "0.0008144",
    "INCLINATION": "66.0398",
    "RA_OF_ASC_NODE": "228.2031",
    "ARG_OF_PERICENTER": "269.8361",
    "MEAN_ANOMALY": "90.1721",
    "EPHEMERIS_TYPE": "0",
    "ELEMENT_SET_NO": "999",
    "REV_AT_EPOCH": "34820",
    "BSTAR": "0.00011976",
    "MEAN_MOTION_DOT": "-0.00000033",
    "MEAN_MOTION_DDOT": "0",
    "FILE": "3944893",
    "TLE_LINE0": "0 JASON 3",
    "TLE_LINE1": "1 41240U 16002A   23179.41183340 -.00000033  00000-0  11976-3 0  9990",
    "TLE_LINE2": "2 41240  66.0398 228.2031 0008144 269.8361  90.1721 12.80930146348206",
    "OBJECT_ID": "2016-002A",
    "OBJECT_NUMBER": "41240",
    "SEMIMAJOR_AXIS": "7715.870",
    "PERIOD": "112.418",
    "APOGEE": "1344.018",
    "PERIGEE": "1331.451",
    "DECAYED": "0"
  },
  {
    "COMMENT": "GENERATED VIA SPACETRACK.ORG API",
    "ORIGINATOR": "18 SPCS",
    "NORAD_CAT_ID": "41240",
    "OBJECT_NAME": "JASON 3",
    "OBJECT_TYPE": "PAYLOAD",
    "CLASSIFICATION_TYPE": "U",
    "INTLDES": "16002A",
    "EPOCH": "2023-06-29 10:14:37",
    "EPOCH_MICROSECONDS": "283424",
    "MEAN_MOTION": "12.8093019",
    "ECCENTRICITY": "0.0008152",
    "INCLINATION": "66.0397",
    "RA_OF_ASC_NODE": "226.095",
    "ARG_OF_PERICENTER": "269.8211",
    "MEAN_ANOMALY": "90.1871",
    "EPHEMERIS_TYPE": "0",
    "ELEMENT_SET_NO": "999",
    "REV_AT_EPOCH": "34833",
    "BSTAR": "0.00014507",
    "MEAN_MOTION_DOT": "-0.00000028",
    "MEAN_MOTION_DDOT": "0",
    "FILE": "3945654",
    "TLE_LINE0": "0 JASON 3",
    "TLE_LINE1": "1 41240U 16002A   23180.42682041 -.00000028  00000-0  14507-3 0  9992",
    "TLE_LINE2": "2 41240  66.0397 226.0950 0008152 269.8211  90.1871 12.80930190348333",
    "OBJECT_ID": "2016-002A",
    "OBJECT_NUMBER": "41240",
    "SEMIMAJOR_AXIS": "7715.869",
    "PERIOD": "112.418",
    "APOGEE": "1344.024",
    "PERIGEE": "1331.444",
    "DECAYED": "0"
  },
  {
    "COMMENT": "GENERATED VIA SPACETRACK.ORG API",
    "ORIGINATOR": "18 SPCS",
    "NORAD_CAT_ID": "41240",
    "OBJECT_NAME": "JASON 3",
    "OBJECT_TYPE": "PAYLOAD",
    "CLASSIFICATION_TYPE": "U",
    "INTLDES": "16002A",
    "EPOCH": "2023-06-30 14:21:03",
    "EPOCH_MICROSECONDS": "678336",
    "MEAN_MOTION": "12.80930225",
    "ECCENTRICITY": "0.0008163",
    "INCLINATION": "66.0396",
    "RA_OF_ASC_NODE": "223.6626",
    "ARG_OF_PERICENTER": "269.799",
    "MEAN_ANOMALY": "90.209",
    "EPHEMERIS_TYPE": "0",
    "ELEMENT_SET_NO": "999",
    "REV_AT_EPOCH": "34848",
    "BSTAR": "0.00014227",
    "MEAN_MOTION_DOT": "-0.00000028",
    "MEAN_MOTION_DDOT": "0",
    "FILE": "3946153",
    "TLE_LINE0": "0 JASON 3",
    "TLE_LINE1": "1 41240U 16002A   23181.59795924 -.00000028  00000-0  14227-3 0  9995",
    "TLE_LINE2": "2 41240  66.0396 223.6626 0008163 269.7990  90.2090 12.80930225348489",
    "OBJECT_ID": "2016-002A",
    "OBJECT_NUMBER": "41240",
    "SEMIMAJOR_AXIS": "7715.869",
    "PERIOD": "112.418",
    "APOGEE": "1344.033",
    "PERIGEE": "1331.436",
    "DECAYED": "0"
  },
  {
    "COMMENT": "GENERATED VIA SPACETRACK.ORG API",
    "ORIGINATOR": "18 SPCS",
    "NORAD_CAT_ID": "41240",
    "OBJECT_NAME": "JASON 3",
    "OBJECT_TYPE": "PAYLOAD",
    "CLASSIFICATION_TYPE": "U",
    "INTLDES": "16002A",
    "EPOCH": "2023-07-01 18:27:30",
    "EPOCH_MICROSECONDS": "61152",
    "MEAN_MOTION": "12.8093029",
    "ECCENTRICITY": "0.0008175",
    "INCLINATION": "66.0395",
    "RA_OF_ASC_NODE": "221.2301",
    "ARG_OF_PERICENTER": "269.8013",
    "MEAN_ANOMALY": "90.2066",
    "EPHEMERIS_TYPE": "0",
    "ELEMENT_SET_NO": "999",
    "REV_AT_EPOCH": "34863",
    "BSTAR": "0.00015117",
    "MEAN_MOTION_DOT": "-0.00000026",
    "MEAN_MOTION_DDOT": "0",
    "FILE": "3947020",
    "TLE_LINE0": "0 JASON 3",
    "TLE_LINE1": "1 41240U 16002A   23182.76909793 -.00000026  00000-0  15117-3 0  9993",
    "TLE_LINE2": "2 41240  66.0395 221.2301 0008175 269.8013  90.2066 12.80930290348634",
    "OBJECT_ID": "2016-002A",
    "OBJECT_NUMBER": "41240",
    "SEMIMAJOR_AXIS": "7715.869",
    "PERIOD": "112.418",
    "APOGEE": "1344.042",
    "PERIGEE": "1331.426",
    "DECAYED": "0"
  },
  {
    "COMMENT": "GENERATED VIA SPACETRACK.ORG API",
    "ORIGINATOR": "18 SPCS",
    "NORAD_CAT_ID": "41240",
    "OBJECT_NAME": "JASON 3",
    "OBJECT_TYPE": "PAYLOAD",
    "CLASSIFICATION_TYPE": "U",
    "INTLDES": "16002A",
    "EPOCH": "2023-07-03 02:18:47",
    "EPOCH_MICROSECONDS": "949120",
    "MEAN_MOTION": "12.80930369",
    "ECCENTRICITY": "0.0008189",
    "INCLINATION": "66.0394",
    "RA_OF_ASC_NODE": "218.4733",
    "ARG_OF_PERICENTER": "269.7353",
    "MEAN_ANOMALY": "90.2724",
    "EPHEMERIS_TYPE": "0",
    "ELEMENT_SET_NO": "999",
    "REV_AT_EPOCH": "34880",
    "BSTAR": "0.0001376",
    "MEAN_MOTION_DOT": "-0.00000029",
    "MEAN_MOTION_DDOT": "0",
    "FILE": "3948037",
    "TLE_LINE0": "0 JASON 3",
    "TLE_LINE1": "1 41240U 16002A   23184.09638830 -.00000029  00000-0  13760-3 0  9997",
    "TLE_LINE2": "2 41240  66.0394 218.4733 0008189 269.7353  90.2724 12.80930369348808",
    "OBJECT_ID": "2016-002A",
    "OBJECT_NUMBER": "41240",
    "SEMIMAJOR_AXIS": "7715.869",
    "PERIOD": "112.418",
    "APOGEE": "1344.052",
    "PERIGEE": "1331.415",
    "DECAYED": "0"
  },
  {
    "COMMENT": "GENERATED VIA SPACETRACK.ORG API",
    "ORIGINATOR": "18 SPCS",
    "NORAD_CAT_ID": "41240",
    "OBJECT_NAME": "JASON 3",
    "OBJECT_TYPE": "PAYLOAD",
    "CLASSIFICATION_TYPE": "U",
    "INTLDES": "16002A",
    "EPOCH": "2023-07-04 02:40:22",
    "EPOCH_MICROSECONDS": "801728",
    "MEAN_MOTION": "12.80930398",
    "ECCENTRICITY": "0.00082",
    "INCLINATION": "66.0393",
    "RA_OF_ASC_NODE": "216.3651",
    "ARG_OF_PERICENTER": "269.7125",
    "MEAN_ANOMALY": "90.295",
    "EPHEMERIS_TYPE": "0",
    "ELEMENT_SET_NO": "999",
    "REV_AT_EPOCH": "34893",
    "BSTAR": "0.00009885",
    "MEAN_MOTION_DOT": "-0.00000038",
    "MEAN_MOTION_DDOT": "0",
    "FILE": "3948984",
    "TLE_LINE0": "0 JASON 3",
    "TLE_LINE1": "1 41240U 16002A   23185.11137502 -.00000038  00000-0  98850-4 0  9995",
    "TLE_LINE2": "2 41240  66.0393 216.3651 0008200 269.7125  90.2950 12.80930398348931",
    "OBJECT_ID": "2016-002A",
    "OBJECT_NUMBER": "41240",
    "SEMIMAJOR_AXIS": "7715.869",
    "PERIOD": "112.418",
    "APOGEE": "1344.061",
    "PERIGEE": "1331.407",
    "DECAYED": "0"
  },
  {
    "COMMENT": "GENERATED VIA SPACETRACK.ORG API",
    "ORIGINATOR": "18 SPCS",
    "NORAD_CAT_ID": "41240",
    "OBJECT_NAME": "JASON 3",
    "OBJECT_TYPE": "PAYLOAD",
    "CLASSIFICATION_TYPE": "U",
    "INTLDES": "16002A",
    "EPOCH": "2023-07-05 10:31:40",
    "EPOCH_MICROSECONDS": "677600",
    "MEAN_MOTION": "12.80930444",
    "ECCENTRICITY": "0.0008207",
    "INCLINATION": "66.0392",
    "RA_OF_ASC_NODE": "213.6083",
    "ARG_OF_PERICENTER": "269.6803",
    "MEAN_ANOMALY": "90.3271",
    "EPHEMERIS_TYPE": "0",
    "ELEMENT_SET_NO": "999",
    "REV_AT_EPOCH": "34910",
    "BSTAR": "0.0000532",
    "MEAN_MOTION_DOT": "-0.00000049",
    "MEAN_MOTION_DDOT": "0",
    "FILE": "3950083",
    "TLE_LINE0": "0 JASON 3",
    "TLE_LINE1": "1 41240U 16002A   23186.43866525 -.00000049  00000-0  53200-4 0  9997",
    "TLE_LINE2": "2 41240  66.0392 213.6083 0008207 269.6803  90.3271 12.80930444349107",
    "OBJECT_ID": "2016-002A",
    "OBJECT_NUMBER": "41240",
    "SEMIMAJOR_AXIS": "7715.868",
    "PERIOD": "112.418",
    "APOGEE": "1344.066",
    "PERIGEE": "1331.401",
    "DECAYED": "0"
  }
]